{"type": "FeatureCollection", "features": [ {"type": "Feature", "properties": {"norad_id": 36163, "name": "FENGYUN 1C DEB", "group": "fengyun-1c-debris", "lat": 22.634139908497485, "lon": -160.25267039845266, "alt_km": 667.9907526261704, "timestamp": "2025-12-24T09:46:31.292249+00:00", "meta": {"OBJECT_NAME": "FENGYUN 1C DEB", "OBJECT_ID": "1999-025DSL", "EPOCH": "2025-12-19T12:50:06.955008", "MEAN_MOTION": 14.59242955, "ECCENTRICITY": 0.0039086, "INCLINATION": 99.0787, "RA_OF_ASC_NODE": 198.2455, "ARG_OF_PERICENTER": 50.867, "MEAN_ANOMALY": 309.5991, "EPHEMERIS_TYPE": 0, "CLASSIFICATION_TYPE": "U", "NORAD_CAT_ID": 36163, "ELEMENT_SET_NO": 999, "REV_AT_EPOCH": 89286, "BSTAR": 0.0021304, "MEAN_MOTION_DOT": 0.0001012, "MEAN_MOTION_DDOT": 0}, "tle": {"line1": "1 36163U 99025DSL 25353.53480272  .00010120  00000+0  21304-2 0  9998", "line2": "2 36163  99.0787 198.2455 0039086  50.8670 309.5991 14.59242955892862"}}, "geometry": {"type": "Point", "coordinates": [-160.25267039845266, 22.634139908497485]}}, {"type": "Feature", "properties": {"norad_id": 36167, "name": "FENGYUN 1C DEB", "group": "fengyun-1c-debris", "lat": 59.80116387768806, "lon": -109.36191076871002, "alt_km": 763.2507921764382, "timestamp": "2025-12-24T09:46:31.292259+00:00", "meta": {"OBJECT_NAME": "FENGYUN 1C DEB", "OBJECT_ID": "1999-025DSQ", "EPOCH": "2025-12-21T23:29:57.430752", "MEAN_MOTION": 14.49314917, "ECCENTRICITY": 0.00688049, "INCLINATION": 98.8145, "RA_OF_ASC_NODE": 263.5651, "ARG_OF_PERICENTER": 216.098, "MEAN_ANOMALY": 143.5557, "EPHEMERIS_TYPE": 0, "CLASSIFICATION_TYPE": "U", "NORAD_CAT_ID": 36167, "ELEMENT_SET_NO": 999, "REV_AT_EPOCH": 67413, "BSTAR": 0.00094360862, "MEAN_MOTION_DOT": 3.662e-05, "MEAN_MOTION_DDOT": 0}, "tle": {"line1": "1 36167U 99025DSQ 25355.97913693  .00003662  00000+0  94361-3 0  9997", "line2": "2 36167  98.8145 263.5651 0068804 216.0980 143.5557 14.49314917674134"}}, "geometry": {"type": "Point", "coordinates": [-109.36191076871002, 59.80116387768806]}}, {"type": "Feature", "properties": {"norad_id": 36173, "name": "FENGYUN 1C DEB", "group": "fengyun-1c-debris", "lat": -7.455000364632063, "lon": 133.7054693369364, "alt_km": 726.0733839808245, "timestamp": "2025-12-24T09:46:31.292269+00:00", "meta": {"OBJECT_NAME": "FENGYUN 1C DEB", "OBJECT_ID": "1999-025DSW", "EPOCH": "2025-12-22T02:59:15.796896", "MEAN_MOTION": 14.25182833, "ECCENTRICITY": 0.01475243, "INCLINATION": 98.2146, "RA_OF_ASC_NODE": 312.65, "ARG_OF_PERICENTER": 157.5208, "MEAN_ANOMALY": 203.2527, "EPHEMERIS_TYPE": 0, "CLASSIFICATION_TYPE": "U", "NORAD_CAT_ID": 36173, "ELEMENT_SET_NO": 999, "REV_AT_EPOCH": 59224, "BSTAR": 0.00017937593, "MEAN_MOTION_DOT": 4.32e-06, "MEAN_MOTION_DDOT": 0}, "tle": {"line1": "1 36173U 99025DSW 25356.12448839  .00000432  00000+0  17938-3 0  9994", "line2": "2 36173  98.2146 312.6500 0147524 157.5208 203.2527 14.25182833592240"}}, "geometry": {"type": "Point", "coordinates": [133.7054693369364, -7.455000364632063]}}, {"type": "Feature", "properties": {"norad_id": 36180, "name": "FENGYUN 1C DEB", "group": "fengyun-1c-debris", "lat": -22.85514820949025, "lon": 65.12745195299031, "alt_km": 685.3128663573507, "timestamp": "2025-12-24T09:46:31.292279+00:00", "meta": {"OBJECT_NAME": "FENGYUN 1C DEB", "OBJECT_ID": "1999-025DTD", "EPOCH": "2025-12-05T21:21:22.276224", "MEAN_MOTION": 14.20680074, "ECCENTRICITY": 0.02106275, "INCLINATION": 98.4572, "RA_OF_ASC_NODE": 43.7979, "ARG_OF_PERICENTER": 50.8055, "MEAN_ANOMALY": 311.1621, "EPHEMERIS_TYPE": 0, "CLASSIFICATION_TYPE": "U", "NORAD_CAT_ID": 36180, "ELEMENT_SET_NO": 999, "REV_AT_EPOCH": 70486, "BSTAR": 0.00091841135, "MEAN_MOTION_DOT": 2.432e-05, "MEAN_MOTION_DDOT": 0}, "tle": {"line1": "1 36180U 99025DTD 25339.88984116  .00002432  00000+0  91841-3 0  9996", "line2": "2 36180  98.4572  43.7979 0210627  50.8055 311.1621 14.20680074704867"}}, "geometry": {"type": "Point", "coordinates": [65.12745195299031, -22.85514820949025]}}, {"type": "Feature", "properties": {"norad_id": 36182, "name": "FENGYUN 1C DEB", "group": "fengyun-1c-debris", "lat": 79.595523706871, "lon": -134.1113471830108, "alt_km": 756.2204466179292, "timestamp": "2025-12-24T09:46:31.292300+00:00", "meta": {"OBJECT_NAME": "FENGYUN 1C DEB", "OBJECT_ID": "1999-025DTF", "EPOCH": "2025-12-23T13:17:56.298048", "MEAN_MOTION": 14.34804109, "ECCENTRICITY": 0.00224297, "INCLINATION": 99.0895, "RA_OF_ASC_NODE": 285.6686, "ARG_OF_PERICENTER": 46.0799, "MEAN_ANOMALY": 314.2231, "EPHEMERIS_TYPE": 0, "CLASSIFICATION_TYPE": "U", "NORAD_CAT_ID": 36182, "ELEMENT_SET_NO": 999, "REV_AT_EPOCH": 88112, "BSTAR": 0.001500182, "MEAN_MOTION_DOT": 4.222e-05, "MEAN_MOTION_DDOT": 0}, "tle": {"line1": "1 36182U 99025DTF 25357.55412382  .00004222  00000+0  15002-2 0  9996", "line2": "2 36182  99.0895 285.6686 0022429  46.0799 314.2231 14.34804109881127"}}, "geometry": {"type": "Point", "coordinates": [-134.1113471830108, 79.595523706871]}}, {"type": "Feature", "properties": {"norad_id": 36186, "name": "FENGYUN 1C DEB", "group": "fengyun-1c-debris", "lat": 9.501609463209904, "lon": -137.7166559532036, "alt_km": 519.2722301917693, "timestamp": "2025-12-24T09:46:31.292312+00:00", "meta": {"OBJECT_NAME": "FENGYUN 1C DEB", "OBJECT_ID": "1999-025DTK", "EPOCH": "2025-12-15T21:11:23.031744", "MEAN_MOTION": 15.12863238, "ECCENTRICITY": 0.00117449, "INCLINATION": 98.9868, "RA_OF_ASC_NODE": 213.7545, "ARG_OF_PERICENTER": 332.6772, "MEAN_ANOMALY": 45.2682, "EPHEMERIS_TYPE": 0, "CLASSIFICATION_TYPE": "U", "NORAD_CAT_ID": 36186, "ELEMENT_SET_NO": 999, "REV_AT_EPOCH": 61618, "BSTAR": 0.0071053274, "MEAN_MOTION_DOT": 0.00127217, "MEAN_MOTION_DDOT": 0}, "tle": {"line1": "1 36186U 99025DTK 25349.88290546  .00127217  00000+0  71053-2 0  9991", "line2": "2 36186  98.9868 213.7545 0011744 332.6772  45.2682 15.12863238616186"}}, "geometry": {"type": "Point", "coordinates": [-137.7166559532036, 9.501609463209904]}}, {"type": "Feature", "properties": {"norad_id": 36188, "name": "FENGYUN 1C DEB", "group": "fengyun-1c-debris", "lat": 18.427864830549623, "lon": -77.85648811480422, "alt_km": 700.3034512971708, "timestamp": "2025-12-24T09:46:31.292323+00:00", "meta": {"OBJECT_NAME": "FENGYUN 1C DEB", "OBJECT_ID": "1999-025DTM", "EPOCH": "2025-12-23T18:14:27.373920", "MEAN_MOTION": 14.60921287, "ECCENTRICITY": 0.00481334, "INCLINATION": 98.5852, "RA_OF_ASC_NODE": 98.5873, "ARG_OF_PERICENTER": 270.3481, "MEAN_ANOMALY": 89.2203, "EPHEMERIS_TYPE": 0, "CLASSIFICATION_TYPE": "U", "NORAD_CAT_ID": 36188, "ELEMENT_SET_NO": 999, "REV_AT_EPOCH": 88213, "BSTAR": 0.0025681041, "MEAN_MOTION_DOT": 0.00012749, "MEAN_MOTION_DDOT": 0}, "tle": {"line1": "1 36188U 99025DTM 25357.76003905  .00012749  00000+0  25681-2 0  9999", "line2": "2 36188  98.5852  98.5873 0048133 270.3481  89.2203 14.60921287882135"}}, "geometry": {"type": "Point", "coordinates": [-77.85648811480422, 18.427864830549623]}}, {"type": "Feature", "properties": {"norad_id": 36198, "name": "FENGYUN 1C DEB", "group": "fengyun-1c-debris", "lat": -6.734786025959139, "lon": -153.7929711493239, "alt_km": 886.4494949138452, "timestamp": "2025-12-24T09:46:31.292333+00:00", "meta": {"OBJECT_NAME": "FENGYUN 1C DEB", "OBJECT_ID": "1999-025DTX", "EPOCH": "2025-12-24T00:22:26.192352", "MEAN_MOTION": 14.07956534, "ECCENTRICITY": 0.0096277, "INCLINATION": 98.6238, "RA_OF_ASC_NODE": 26.8596, "ARG_OF_PERICENTER": 83.715, "MEAN_ANOMALY": 277.4975, "EPHEMERIS_TYPE": 0, "CLASSIFICATION_TYPE": "U", "NORAD_CAT_ID": 36198, "ELEMENT_SET_NO": 999, "REV_AT_EPOCH": 63746, "BSTAR": 0.0016668, "MEAN_MOTION_DOT": 2.915e-05, "MEAN_MOTION_DDOT": 0}, "tle": {"line1": "1 36198U 99025DTX 25358.01558093  .00002915  00000+0  16668-2 0  9991", "line2": "2 36198  98.6238  26.8596 0096277  83.7150 277.4975 14.07956534637467"}}, "geometry": {"type": "Point", "coordinates": [-153.7929711493239, -6.734786025959139]}}, {"type": "Feature", "properties": {"norad_id": 36199, "name": "FENGYUN 1C DEB", "group": "fengyun-1c-debris", "lat": -46.57539320665875, "lon": -169.8734261469711, "alt_km": 863.9444842940557, "timestamp": "2025-12-24T09:46:31.292343+00:00", "meta": {"OBJECT_NAME": "FENGYUN 1C DEB", "OBJECT_ID": "1999-025DTY", "EPOCH": "2025-12-24T00:19:09.568416", "MEAN_MOTION": 14.29665492, "ECCENTRICITY": 0.0092471, "INCLINATION": 98.2889, "RA_OF_ASC_NODE": 18.6118, "ARG_OF_PERICENTER": 34.3692, "MEAN_ANOMALY": 326.3426, "EPHEMERIS_TYPE": 0, "CLASSIFICATION_TYPE": "U", "NORAD_CAT_ID": 36199, "ELEMENT_SET_NO": 999, "REV_AT_EPOCH": 65141, "BSTAR": 0.0002551, "MEAN_MOTION_DOT": 6.44e-06, "MEAN_MOTION_DDOT": 0}, "tle": {"line1": "1 36199U 99025DTY 25358.01330519  .00000644  00000+0  25510-3 0  9997", "line2": "2 36199  98.2889  18.6118 0092471  34.3692 326.3426 14.29665492651410"}}, "geometry": {"type": "Point", "coordinates": [-169.8734261469711, -46.57539320665875]}}, {"type": "Feature", "properties": {"norad_id": 36200, "name": "FENGYUN 1C DEB", "group": "fengyun-1c-debris", "lat": 18.983310507775226, "lon": -102.87000588934437, "alt_km": 719.7805800099177, "timestamp": "2025-12-24T09:46:31.292354+00:00", "meta": {"OBJECT_NAME": "FENGYUN 1C DEB", "OBJECT_ID": "1999-025DTZ", "EPOCH": "2025-12-18T11:29:22.430112", "MEAN_MOTION": 14.58878702, "ECCENTRICITY": 0.00334665, "INCLINATION": 99.3866, "RA_OF_ASC_NODE": 67.1749, "ARG_OF_PERICENTER": 349.3175, "MEAN_ANOMALY": 10.7306, "EPHEMERIS_TYPE": 0, "CLASSIFICATION_TYPE": "U", "NORAD_CAT_ID": 36200, "ELEMENT_SET_NO": 999, "REV_AT_EPOCH": 73444, "BSTAR": 0.0030254182, "MEAN_MOTION_DOT": 0.00014247, "MEAN_MOTION_DDOT": 0}, "tle": {"line1": "1 36200U 99025DTZ 25352.47873183  .00014247  00000+0  30254-2 0  9997", "line2": "2 36200  99.3866  67.1749 0033466 349.3175  10.7306 14.58878702734441"}}, "geometry": {"type": "Point", "coordinates": [-102.87000588934437, 18.983310507775226]}}]}